CTC1_L_00154001-01
1 68579U 22510TC  26070.40833333  .00000000  00000+0  00000-0 0  9996
2 68579  85.0000   0.0000 0000000   0.0000   0.0000 14.06899812    19
CTC1_L_00154001-02
1 68580U 22331SA  26070.40833333  .00000000  00000+0  00000-0 0  9999
2 68580  85.0000   0.0000 0000000   0.0000  90.0000 14.06899812    10
CTC1_L_00154001-03
1 68581U 25662YC  26070.40833333  .00000000  00000+0  00000-0 0  9990
2 68581  85.0000   0.0000 0000000   0.0000 180.0000 14.06899812    11
CTC1_L_00154001-04
1 68582U 25610GG  26070.40833333  .00000000  00000+0  00000-0 0  9994
2 68582  85.0000   0.0000 0000000   0.0000 270.0000 14.06899812    12
CTC1_L_00154002-01
1 68583U 23007MU  26070.40833333  .00000000  00000+0  00000-0 0  9993
2 68583  85.0000  12.0000 0000000   0.0000  12.0000 14.06899812    10
CTC1_L_00154002-02
1 68584U 25910JW  26070.40833333  .00000000  00000+0  00000-0 0  9999
2 68584  85.0000  12.0000 0000000   0.0000 102.0000 14.06899812    11
CTC1_L_00154002-03
1 68585U 23177QL  26070.40833333  .00000000  00000+0  00000-0 0  9993
2 68585  85.0000  12.0000 0000000   0.0000 192.0000 14.06899812    11
CTC1_L_00154002-04
1 68586U 22224CQ  26070.40833333  .00000000  00000+0  00000-0 0  9996
2 68586  85.0000  12.0000 0000000   0.0000 282.0000 14.06899812    12
CTC1_L_00154003-01
1 68587U 26982VG  26070.40833333  .00000000  00000+0  00000-0 0  9992
2 68587  85.0000  24.0000 0000000   0.0000  24.0000 14.06899812    10
CTC1_L_00154003-02
1 68588U 23753QK  26070.40833333  .00000000  00000+0  00000-0 0  9996
2 68588  85.0000  24.0000 0000000   0.0000 114.0000 14.06899812    11
CTC1_L_00154003-03
1 68589U 23347GM  26070.40833333  .00000000  00000+0  00000-0 0  9996
2 68589  85.0000  24.0000 0000000   0.0000 204.0000 14.06899812    12
CTC1_L_00154003-04
1 68590U 24332RF  26070.40833333  .00000000  00000+0  00000-0 0  9993
2 68590  85.0000  24.0000 0000000   0.0000 294.0000 14.06899812    13
CTC1_L_00154004-01
1 68591U 23743TN  26070.40833333  .00000000  00000+0  00000-0 0  9999
2 68591  85.0000  36.0000 0000000   0.0000  36.0000 14.06899812    11
CTC1_L_00154004-02
1 68592U 23920SE  26070.40833333  .00000000  00000+0  00000-0 0  9997
2 68592  85.0000  36.0000 0000000   0.0000 126.0000 14.06899812    12
CTC1_L_00154004-03
1 68593U 22210HR  26070.40833333  .00000000  00000+0  00000-0 0  9999
2 68593  85.0000  36.0000 0000000   0.0000 216.0000 14.06899812    13
CTC1_L_00154004-04
1 68594U 26314OS  26070.40833333  .00000000  00000+0  00000-0 0  9999
2 68594  85.0000  36.0000 0000000   0.0000 306.0000 14.06899812    14
CTC1_L_00154005-01
1 68595U 26998LE  26070.40833333  .00000000  00000+0  00000-0 0  9998
2 68595  85.0000  48.0000 0000000   0.0000  48.0000 14.06899812    11
CTC1_L_00154005-02
1 68596U 23443DM  26070.40833333  .00000000  00000+0  00000-0 0  9991
2 68596  85.0000  48.0000 0000000   0.0000 138.0000 14.06899812    12
CTC1_L_00154005-03
1 68597U 26141PR  26070.40833333  .00000000  00000+0  00000-0 0  9990
2 68597  85.0000  48.0000 0000000   0.0000 228.0000 14.06899812    13
CTC1_L_00154005-04
1 68598U 22855BT  26070.40833333  .00000000  00000+0  00000-0 0  9999
2 68598  85.0000  48.0000 0000000   0.0000 318.0000 14.06899812    14
CTC1_L_00154006-01
1 68599U 22296BD  26070.40833333  .00000000  00000+0  00000-0 0  9999
2 68599  85.0000  60.0000 0000000   0.0000  60.0000 14.06899812    13
CTC1_L_00154006-02
1 68600U 22182N   26070.40833333  .00000000  00000+0  00000-0 0  9996
2 68600  85.0000  60.0000 0000000   0.0000 150.0000 14.06899812    16
CTC1_L_00154006-03
1 68601U 23917PS  26070.40833333  .00000000  00000+0  00000-0 0  9994
2 68601  85.0000  60.0000 0000000   0.0000 240.0000 14.06899812    17
CTC1_L_00154006-04
1 68602U 22469CL  26070.40833333  .00000000  00000+0  00000-0 0  9996
2 68602  85.0000  60.0000 0000000   0.0000 330.0000 14.06899812    18
CTC1_L_00154007-01
1 68603U 22144YU  26070.40833333  .00000000  00000+0  00000-0 0  9997
2 68603  85.0000  72.0000 0000000   0.0000  72.0000 14.06899812    15
CTC1_L_00154007-02
1 68604U 26361BT  26070.40833333  .00000000  00000+0  00000-0 0  9993
2 68604  85.0000  72.0000 0000000   0.0000 162.0000 14.06899812    16
CTC1_L_00154007-03
1 68605U 22732GC  26070.40833333  .00000000  00000+0  00000-0 0  9992
2 68605  85.0000  72.0000 0000000   0.0000 252.0000 14.06899812    17
CTC1_L_00154007-04
1 68606U 24652C   26070.40833333  .00000000  00000+0  00000-0 0  9996
2 68606  85.0000  72.0000 0000000   0.0000 342.0000 14.06899812    18
CTC1_L_00154008-01
1 68607U 23056UO  26070.40833333  .00000000  00000+0  00000-0 0  9994
2 68607  85.0000  84.0000 0000000   0.0000  84.0000 14.06899812    15
CTC1_L_00154008-02
1 68608U 23086YA  26070.40833333  .00000000  00000+0  00000-0 0  9998
2 68608  85.0000  84.0000 0000000   0.0000 174.0000 14.06899812    16
CTC1_L_00154008-03
1 68609U 26523MJ  26070.40833333  .00000000  00000+0  00000-0 0  9998
2 68609  85.0000  84.0000 0000000   0.0000 264.0000 14.06899812    17
CTC1_L_00154008-04
1 68610U 23942TR  26070.40833333  .00000000  00000+0  00000-0 0  9992
2 68610  85.0000  84.0000 0000000   0.0000 354.0000 14.06899812    19
CTC1_L_00154009-01
1 68611U 25842OZ  26070.40833333  .00000000  00000+0  00000-0 0  9994
2 68611  85.0000  96.0000 0000000   0.0000  96.0000 14.06899812    16
CTC1_L_00154009-02
1 68612U 22411OJ  26070.40833333  .00000000  00000+0  00000-0 0  9994
2 68612  85.0000  96.0000 0000000   0.0000 186.0000 14.06899812    17
CTC1_L_00154009-03
1 68613U 25448MK  26070.40833333  .00000000  00000+0  00000-0 0  9998
2 68613  85.0000  96.0000 0000000   0.0000 276.0000 14.06899812    18
CTC1_L_00154009-04
1 68614U 22763PT  26070.40833333  .00000000  00000+0  00000-0 0  9996
2 68614  85.0000  96.0000 0000000   0.0000   6.0000 14.06899812    10
CTC1_L_00154010-01
1 68615U 22042JI  26070.40833333  .00000000  00000+0  00000-0 0  9997
2 68615  85.0000 108.0000 0000000   0.0000 108.0000 14.06899812    18
CTC1_L_00154010-02
1 68616U 23711H   26070.40833333  .00000000  00000+0  00000-0 0  9992
2 68616  85.0000 108.0000 0000000   0.0000 198.0000 14.06899812    18
CTC1_L_00154010-03
1 68617U 25503HZ  26070.40833333  .00000000  00000+0  00000-0 0  9994
2 68617  85.0000 108.0000 0000000   0.0000 288.0000 14.06899812    19
CTC1_L_00154010-04
1 68618U 25872XK  26070.40833333  .00000000  00000+0  00000-0 0  9994
2 68618  85.0000 108.0000 0000000   0.0000  18.0000 14.06899812    11
CTC1_L_00154011-01
1 68619U 25189KO  26070.40833333  .00000000  00000+0  00000-0 0  9996
2 68619  85.0000 120.0000 0000000   0.0000 120.0000 14.06899812    10
CTC1_L_00154011-02
1 68620U 24140FL  26070.40833333  .00000000  00000+0  00000-0 0  9994
2 68620  85.0000 120.0000 0000000   0.0000 210.0000 14.06899812    12
CTC1_L_00154011-03
1 68621U 25337CN  26070.40833333  .00000000  00000+0  00000-0 0  9994
2 68621  85.0000 120.0000 0000000   0.0000 300.0000 14.06899812    13
CTC1_L_00154011-04
1 68622U 26219PN  26070.40833333  .00000000  00000+0  00000-0 0  9995
2 68622  85.0000 120.0000 0000000   0.0000  30.0000 14.06899812    14
CTC1_L_00154012-01
1 68623U 24468FO  26070.40833333  .00000000  00000+0  00000-0 0  9990
2 68623  85.0000 132.0000 0000000   0.0000 132.0000 14.06899812    11
CTC1_L_00154012-02
1 68624U 23253QM  26070.40833333  .00000000  00000+0  00000-0 0  9992
2 68624  85.0000 132.0000 0000000   0.0000 222.0000 14.06899812    12
CTC1_L_00154012-03
1 68625U 26748AU  26070.40833333  .00000000  00000+0  00000-0 0  9995
2 68625  85.0000 132.0000 0000000   0.0000 312.0000 14.06899812    13
CTC1_L_00154012-04
1 68626U 23867AI  26070.40833333  .00000000  00000+0  00000-0 0  9995
2 68626  85.0000 132.0000 0000000   0.0000  42.0000 14.06899812    14
CTC1_L_00154013-01
1 68627U 26780PE  26070.40833333  .00000000  00000+0  00000-0 0  9993
2 68627  85.0000 144.0000 0000000   0.0000 144.0000 14.06899812    11
CTC1_L_00154013-02
1 68628U 24221RX  26070.40833333  .00000000  00000+0  00000-0 0  9992
2 68628  85.0000 144.0000 0000000   0.0000 234.0000 14.06899812    12
CTC1_L_00154013-03
1 68629U 26946OW  26070.40833333  .00000000  00000+0  00000-0 0  9999
2 68629  85.0000 144.0000 0000000   0.0000 324.0000 14.06899812    13
CTC1_L_00154013-04
1 68630U 26601OZ  26070.40833333  .00000000  00000+0  00000-0 0  9999
2 68630  85.0000 144.0000 0000000   0.0000  54.0000 14.06899812    15
CTC1_L_00154014-01
1 68631U 24054XI  26070.40833333  .00000000  00000+0  00000-0 0  9990
2 68631  85.0000 156.0000 0000000   0.0000 156.0000 14.06899812    12
CTC1_L_00154014-02
1 68632U 23034FD  26070.40833333  .00000000  00000+0  00000-0 0  9998
2 68632  85.0000 156.0000 0000000   0.0000 246.0000 14.06899812    13
CTC1_L_00154014-03
1 68633U 22266QP  26070.40833333  .00000000  00000+0  00000-0 0  9995
2 68633  85.0000 156.0000 0000000   0.0000 336.0000 14.06899812    14
CTC1_L_00154014-04
1 68634U 25855UG  26070.40833333  .00000000  00000+0  00000-0 0  9993
2 68634  85.0000 156.0000 0000000   0.0000  66.0000 14.06899812    15
CTC1_L_00154015-01
1 68635U 25453EN  26070.40833333  .00000000  00000+0  00000-0 0  9998
2 68635  85.0000 168.0000 0000000   0.0000 168.0000 14.06899812    12
CTC1_L_00154015-02
1 68636U 26294BK  26070.40833333  .00000000  00000+0  00000-0 0  9993
2 68636  85.0000 168.0000 0000000   0.0000 258.0000 14.06899812    13
CTC1_L_00154015-03
1 68637U 23576OY  26070.40833333  .00000000  00000+0  00000-0 0  9994
2 68637  85.0000 168.0000 0000000   0.0000 348.0000 14.06899812    14
CTC1_L_00154015-04
1 68638U 25282YL  26070.40833333  .00000000  00000+0  00000-0 0  9991
2 68638  85.0000 168.0000 0000000   0.0000  78.0000 14.06899812    15
CTC1_L_00154016-01
1 68639U 26899BP  26070.40833333  .00000000  00000+0  00000-0 0  9997
2 68639  85.0000 180.0000 0000000   0.0000 180.0000 14.06899812    14
CTC1_L_00154016-02
1 68640U 23659RE  26070.40833333  .00000000  00000+0  00000-0 0  9990
2 68640  85.0000 180.0000 0000000   0.0000 270.0000 14.06899812    16
